CZ-4B R/B               
1 28059U 03049C   19045.81007324 -.00000043  00000-0  15053-5 0  9991
2 28059  98.5038 311.5427 0049840 190.8695 213.5215 14.52552275811888
CZ-2C R/B               
1 28222U 04012C   19045.85744709  .00000392  00000-0  27715-4 0  9996
2 28222  97.6099   4.4596 0045971 262.8866 157.7766 15.09972610812291
SL-16 R/B               
1 28353U 04021B   19045.10042251  .00000014  00000-0  32396-4 0  9994
2 28353  70.9966 245.6351 0005315 334.9029  25.1834 14.14211801757960
CZ-2C R/B               
1 28480U 04046B   19045.32073005  .00000013  00000-0  20671-4 0  9999
2 28480  98.1487 111.2776 0141064 231.6761 170.6318 14.25693272740747
ARIANE 5 R/B            
1 28499U 04049H   19045.22141894  .00000017  00000-0  93454-5 0  9997
2 28499  98.0513 140.6830 0093348  55.0898   4.9807 14.79947716763777
CZ-2D R/B               
1 28738U 05024B   19045.67437508  .00000317  00000-0  22259-4 0  9993
2 28738  97.4291  78.1813 0013601  74.1286 286.1443 15.11720674747571
SUZAKU (ASTRO-EII)      
1 28773U 05025A   19044.95244373  .00000778  00000-0  34140-4 0  9992
2 28773  31.3833 317.9577 0004644 320.4401  39.5906 15.16906658749550
ALOS (DAICHI)           
1 28931U 06002A   19045.82978678  .00000158  00000-0  39751-4 0  9998
2 28931  97.8174  51.5936 0000693 111.5420 248.5868 14.62579584696274
H-2A R/B                
1 28932U 06002B   19045.82736007  .00000409  00000-0  43743-4 0  9992
2 28932  98.2647   5.1491 0090254 120.2135 263.1918 14.91894779708392
AKARI (ASTRO-F)         
1 28939U 06005A   19045.84138886  .00002213  00000-0  64906-4 0  9994
2 28939  98.1914 321.6418 0097668 231.2901 127.9575 15.31930867706051
RESURS-DK 1             
1 29228U 06021A   19045.81608681  .00000063  00000-0  12110-4 0  9997
2 29228  69.9372 351.8104 0003113 173.7768 186.3432 15.02405330699352
GENESIS 1               
1 29252U 06029A   19045.54252716  .00000352  00000-0  27320-4 0  9996
2 29252  64.5011 100.4634 0054034 260.0498  99.4524 15.17574502693976
CZ-4B R/B               
1 29507U 06046C   19045.67791018 -.00000267  00000-0 -15687-4 0  9995
2 29507  97.7847  63.5260 0046461   6.1809 353.9977 15.00450448672126
CZ-2C R/B               
1 31114U 07010B   19045.75825526 -.00000052  00000-0 -52063-5 0  9997
2 31114  98.3308 284.6365 0058633 250.0033 109.4824 14.19289711613691
COSMO-SKYMED 1          
1 31598U 07023A   19045.70129808  .00000121  00000-0  21713-4 0  9994
2 31598  97.8872 230.8203 0001539  87.7791 272.3596 14.82159039632438
GENESIS 2               
1 31789U 07028A   19044.76732936  .00000277  00000-0  24321-4 0  9998
2 31789  64.5037 143.2561 0040611 304.6494  55.0802 15.16809649640884
COSMOS 2428             
1 31792U 07029A   19045.83271239 -.00000292  00000-0 -13183-3 0  9998
2 31792  70.9575 218.1298 0007118  75.6566 284.5345 14.12547421599870
SL-16 R/B               
1 31793U 07029B   19045.82453187  .00000232  00000-0  14586-3 0  9992
2 31793  70.9754 192.7803 0002537 273.5870 258.1672 14.14412857600639
KORONAS-FOTON           
1 33504U 09003A   19045.83431292  .00000477  00000-0  23478-4 0  9994
2 33504  82.4447 348.8848 0019541 164.6145 195.5686 15.15341567553489
H-2A R/B                
1 38341U 12025E   19045.38759099  .00000095  00000-0  18647-4 0  9992
2 38341  98.4338 165.8455 0055664   5.8212 354.3636 14.83848403364921
CUSAT 2 & FALCON 9 R/B  
1 39271U 13055G   19045.21849004  .00004340  00000-0  10724-3 0  9991
2 39271  80.9665  71.4695 0606111 196.6514 161.3986 14.43729042280030
SL-4 R/B                
1 39679U 14021B   19045.84393660  .00000015  00000-0  19411-4 0  9996
2 39679  51.6145 214.1572 0173522  53.2645 308.4119 15.06003802265706
ALOS-2                  
1 39766U 14029A   19045.72852687  .00000105  00000-0  20975-4 0  9994
2 39766  97.9202 144.3427 0001459  85.4320 274.7059 14.79473680255430
SL-27 R/B               
1 40354U 14084B   19045.42411061  .00000855  00000-0  22606-4 0  9999
2 40354  74.7396 319.2429 0037356  33.5389 326.8176 15.39510521233260
ASTRO-H (HITOMI)        
1 41337U 16012A   19044.90968139  .00000216  00000-0  10613-4 0  9995
2 41337  31.0044 233.3601 0012620 273.8929  86.0263 14.98547951164000
TIANGONG-2              
1 41765U 16057A   19045.87249059  .00003854  00000-0  49650-4 0  9993
2 41765  42.7851 336.2237 0006377 144.5945 320.4813 15.60683929137925
SHENZHOU-11 MODULE      
1 41868U 16061G   19044.83164272  .00010390  00000-0  64870-4 0  9994
2 41868  42.7933 282.5009 0005828 259.9094 151.7019 15.76975433128379
